INTELSAT 23 (IS-23)     
1 38867U 12057A   26199.80253007 -.00000291  00000+0  00000+0 0  9990
2 38867   0.0118 352.1056 0000281 137.1444  43.2224  1.00277457 50275
FM-6                    
1 39360U 13058A   26199.58864397 -.00000024  00000+0  00000+0 0  9990
2 39360   0.0130  35.9612 0001495 147.9640 208.0270  1.00278676 46380
INTELSAT 30 (IS-30)     
1 40271U 14062A   26199.57883935 -.00000158  00000+0  00000+0 0  9995
2 40271   0.0172  54.2083 0001489 340.9469  14.5587  1.00275364  7101
DIRECTV 14              
1 40333U 14078B   26199.58308632 -.00000132  00000+0  00000+0 0  9990
2 40333   0.0124  49.6835 0000308 326.6774  30.6839  1.00270331 42353
DIRECTV 15              
1 40663U 15026A   26199.58308632 -.00000109  00000+0  00000+0 0  9994
2 40663   0.0216  78.3790 0000350 301.7795  23.2456  1.00269297 40770
SKY MEXICO-1            
1 40664U 15026B   26199.72505785 -.00000241  00000+0  00000+0 0  9996
2 40664   0.0169  71.8608 0002388  60.5114 346.3730  1.00272749 40772
INTELSAT 34 (IS-34)     
1 40874U 15039A   26199.80253007 -.00000292  00000+0  00000+0 0  9995
2 40874   0.0097  16.3960 0000544 357.3219 156.2971  1.00272182 39959
INTELSAT 31 (IS-31)     
1 41581U 16035A   26199.57883935 -.00000158  00000+0  00000+0 0  9992
2 41581   0.0431 237.0046 0000896  54.9630 117.7441  1.00274971 36994
INTELSAT 36 (IS-36)     
1 41747U 16053A   26199.17614029 -.00000033  00000+0  00000+0 0  9990
2 41747   0.0101  31.5291 0002360 315.0581  81.2885  1.00272889 36268
INTELSAT 32E (IS-32E)   
1 41945U 17007B   26199.79697495  .00000000  00000+0  00000+0 0  9999
2 41945   0.0187  54.3733 0000560 331.4468 154.5136  1.00270367 34543
INTELSAT 35E (IS-35E)   
1 42818U 17041A   26199.75807058 -.00000245  00000+0  00000+0 0  9993
2 42818   0.0167  64.6546 0001946  53.5774  56.7266  1.00272651 33137
INTELSAT 37E (IS-37E)   
1 42950U 17059A   26199.76225269 -.00000147  00000+0  00000+0 0  9999
2 42950   0.0161  80.1668 0002664  39.9691  72.8257  1.00272915 32388
AZERSPACE 2 (IS-38)     
1 43632U 18074A   26199.93850706  .00000000  00000+0  00000+0 0  9991
2 43632   0.0176  47.7897 0001471  61.2876 210.6428  1.00270128 28766
HORIZONS-3E             
1 43633U 18074B   26199.72713044 -.00000037  00000+0  00000+0 0  9993
2 43633   0.0390 251.1956 0000699  36.2086  79.8718  1.00271494 28650
AT&T T-16               
1 44333U 19034A   26199.58308632 -.00000122  00000+0  00000+0 0  9990
2 44333   0.0125  72.6319 0001002 281.2295  51.5735  1.00268577 25949
INTELSAT 39 (IS-39)     
1 44476U 19049B   26199.97701778  .00000000  00000+0  00000+0 0  9999
2 44476   0.0172  48.0745 0000924 310.2157 352.1657  1.00269702 25440
GALAXY 30 (G-30)        
1 46114U 20056C   26199.59419865  .00000030  00000+0  00000+0 0  9994
2 46114   0.0188  55.7560 0002222  63.4658 266.0802  1.00272702 21607
GALAXY 33 (G-33)        
1 54026U 22128A   26199.73857050  .00000073  00000+0  00000+0 0  9992
2 54026   0.0185  65.6459 0001890  48.1004 315.6536  1.00270285 14057
GALAXY 34 (G-34)        
1 54027U 22128B   26199.59419865  .00000052  00000+0  00000+0 0  9992
2 54027   0.0115  73.7877 0001693  44.5599 262.9468  1.00274611 14229
GALAXY 31 (G-31)        
1 54243U 22153A   26199.58864397  .00000006  00000+0  00000+0 0  9992
2 54243   0.0206  94.6525 0001129  24.7798 267.8499  1.00272302  7446
GALAXY 32 (G-32)        
1 54244U 22153B   26199.57753144 -.00000181  00000+0  00000+0 0  9994
2 54244   0.0135  54.9552 0001390 353.3136   5.0201  1.00272389 13450
GALAXY 35 (G-35)        
1 54741U 22170A   26199.57753144 -.00000169  00000+0  00000+0 0  9991
2 54741   0.0155  93.0372 0001907  23.3164 294.8224  1.00272219 13205
GALAXY 36 (G-36)        
1 54742U 22170B   26199.57753144 -.00000192  00000+0  00000+0 0  9998
2 54742   0.0183 141.4952 0002657 316.9631 316.8281  1.00271822 13085
GALAXY 37 (G-37)        
1 57493U 23112A   26199.59419865  .00000041  00000+0  00000+0 0  9994
2 57493   0.0164  59.8517 0002083  55.7407 267.7010  1.00271956 10855
